FLOCK 4H-16             
1 66719U 25276BF  26196.13646851  .00003821  00000+0  17977-3 0  9996
2 66719  97.4229 269.2754 0002798 256.0301 104.0623 15.20150118 34661
FLOCK 4H-18             
1 66721U 25276BH  26196.20846308  .00003833  00000+0  18067-3 0  9990
2 66721  97.4172 269.1598 0002217 292.8083  67.2918 15.20091695 34679
FLOCK 4H-19             
1 66722U 25276BJ  26196.14194591  .00003211  00000+0  14671-3 0  9991
2 66722  97.4172 269.5569 0002390 149.0443 211.0934 15.21284645 33987
FLOCK 4H-20             
1 66723U 25276BK  26196.14409777  .00003815  00000+0  17292-3 0  9999
2 66723  97.4210 269.6648 0002844 170.3119 189.8172 15.21445173 33948
FLOCK 4H-21             
1 66724U 25276BL  26196.17543980  .00003172  00000+0  14605-3 0  9999
2 66724  97.4177 269.5199 0002692 169.2889 190.8404 15.21030031 33946
FLOCK 4H-22             
1 66725U 25276BM  26196.15418462  .00004263  00000+0  19809-3 0  9997
2 66725  97.4166 269.2096 0001038 297.9275  62.1856 15.20522580 34676
FLOCK 4H-23             
1 66726U 25276BN  26196.14197149  .00003978  00000+0  18749-3 0  9997
2 66726  97.4236 269.2822 0003019 244.3847 115.7077 15.20070391 34661
FLOCK 4H-24             
1 66727U 25276BP  26196.19258525  .00003565  00000+0  16783-3 0  9997
2 66727  97.4231 269.3610 0002387 267.1785  92.9177 15.20180185 34675
FLOCK 4H-25             
1 66728U 25276BQ  26196.19391669  .00003529  00000+0  16251-3 0  9995
2 66728  97.4187 269.5294 0001834 127.1159 233.0245 15.20945727 33979
FLOCK 4H-26             
1 66729U 25276BR  26196.16018348  .00004023  00000+0  19047-3 0  9999
2 66729  97.4187 269.1110 0003212 265.7877  94.2991 15.19902836 34665
FLOCK 4H-27             
1 66730U 25276BS  26196.15873457  .00003756  00000+0  17366-3 0  9994
2 66730  97.4163 269.3482 0001576 128.0753 232.0625 15.20768764 34680
FLOCK 4H-29             
1 66732U 25276BU  26196.13971659  .00003983  00000+0  18784-3 0  9994
2 66732  97.4164 269.0732 0001661 285.6673  74.4378 15.20043284 34668
FLOCK 4H-30             
1 66733U 25276BV  26196.13162235  .00003686  00000+0  17347-3 0  9991
2 66733  97.4226 269.2727 0002656 266.1740  93.9192 15.20165750 34661
FLOCK 4H-31             
1 66734U 25276BW  26196.15259080  .00003808  00000+0  18027-3 0  9991
2 66734  97.4164 269.0532 0002143 277.5475  82.5517 15.19941405 34669
FLOCK 4H-32             
1 66735U 25276BX  26196.14050194  .00003826  00000+0  18051-3 0  9993
2 66735  97.4218 269.2375 0003037 262.4056  97.6834 15.20061191 34664
FLOCK 4H-33             
1 66736U 25276BY  26196.16449716  .00003516  00000+0  16080-3 0  9994
2 66736  97.4216 269.6540 0002705 162.5407 197.5922 15.21188739 34692
