{"fetched_at":"2026-07-15T17:46:48.171Z","source":"https://celestrak.org/NORAD/elements/gp.php?GROUP=planet&FORMAT=JSON","constellation":"superdove","records":[{"OBJECT_NAME":"FLOCK 4H-16","OBJECT_ID":"2025-276BF","EPOCH":"2026-07-15T03:16:30.879264","CLASSIFICATION_TYPE":"U","MEAN_MOTION":15.20150118,"ECCENTRICITY":0.0002798,"INCLINATION":97.4229,"RA_OF_ASC_NODE":269.2754,"ARG_OF_PERICENTER":256.0301,"MEAN_ANOMALY":104.0623,"EPHEMERIS_TYPE":0,"NORAD_CAT_ID":66719,"ELEMENT_SET_NO":999,"REV_AT_EPOCH":3466,"BSTAR":0.00017977,"MEAN_MOTION_DOT":0.00003821,"MEAN_MOTION_DDOT":0},{"OBJECT_NAME":"FLOCK 4H-18","OBJECT_ID":"2025-276BH","EPOCH":"2026-07-15T05:00:11.210112","CLASSIFICATION_TYPE":"U","MEAN_MOTION":15.20091695,"ECCENTRICITY":0.0002217,"INCLINATION":97.4172,"RA_OF_ASC_NODE":269.1598,"ARG_OF_PERICENTER":292.8083,"MEAN_ANOMALY":67.2918,"EPHEMERIS_TYPE":0,"NORAD_CAT_ID":66721,"ELEMENT_SET_NO":999,"REV_AT_EPOCH":3467,"BSTAR":0.00018067,"MEAN_MOTION_DOT":0.00003833,"MEAN_MOTION_DDOT":0},{"OBJECT_NAME":"FLOCK 4H-19","OBJECT_ID":"2025-276BJ","EPOCH":"2026-07-15T03:24:24.126624","CLASSIFICATION_TYPE":"U","MEAN_MOTION":15.21284645,"ECCENTRICITY":0.000239,"INCLINATION":97.4172,"RA_OF_ASC_NODE":269.5569,"ARG_OF_PERICENTER":149.0443,"MEAN_ANOMALY":211.0934,"EPHEMERIS_TYPE":0,"NORAD_CAT_ID":66722,"ELEMENT_SET_NO":999,"REV_AT_EPOCH":3398,"BSTAR":0.00014671,"MEAN_MOTION_DOT":0.00003211,"MEAN_MOTION_DDOT":0},{"OBJECT_NAME":"FLOCK 4H-20","OBJECT_ID":"2025-276BK","EPOCH":"2026-07-15T03:27:30.047328","CLASSIFICATION_TYPE":"U","MEAN_MOTION":15.21445173,"ECCENTRICITY":0.0002844,"INCLINATION":97.421,"RA_OF_ASC_NODE":269.6648,"ARG_OF_PERICENTER":170.3119,"MEAN_ANOMALY":189.8172,"EPHEMERIS_TYPE":0,"NORAD_CAT_ID":66723,"ELEMENT_SET_NO":999,"REV_AT_EPOCH":3394,"BSTAR":0.00017292,"MEAN_MOTION_DOT":0.00003815,"MEAN_MOTION_DDOT":0},{"OBJECT_NAME":"FLOCK 4H-21","OBJECT_ID":"2025-276BL","EPOCH":"2026-07-15T04:12:37.998720","CLASSIFICATION_TYPE":"U","MEAN_MOTION":15.21030031,"ECCENTRICITY":0.0002692,"INCLINATION":97.4177,"RA_OF_ASC_NODE":269.5199,"ARG_OF_PERICENTER":169.2889,"MEAN_ANOMALY":190.8404,"EPHEMERIS_TYPE":0,"NORAD_CAT_ID":66724,"ELEMENT_SET_NO":999,"REV_AT_EPOCH":3394,"BSTAR":0.00014605,"MEAN_MOTION_DOT":0.00003172,"MEAN_MOTION_DDOT":0},{"OBJECT_NAME":"FLOCK 4H-22","OBJECT_ID":"2025-276BM","EPOCH":"2026-07-15T03:42:01.551168","CLASSIFICATION_TYPE":"U","MEAN_MOTION":15.2052258,"ECCENTRICITY":0.0001038,"INCLINATION":97.4166,"RA_OF_ASC_NODE":269.2096,"ARG_OF_PERICENTER":297.9275,"MEAN_ANOMALY":62.1856,"EPHEMERIS_TYPE":0,"NORAD_CAT_ID":66725,"ELEMENT_SET_NO":999,"REV_AT_EPOCH":3467,"BSTAR":0.00019809,"MEAN_MOTION_DOT":0.00004263,"MEAN_MOTION_DDOT":0},{"OBJECT_NAME":"FLOCK 4H-23","OBJECT_ID":"2025-276BN","EPOCH":"2026-07-15T03:24:26.336736","CLASSIFICATION_TYPE":"U","MEAN_MOTION":15.20070391,"ECCENTRICITY":0.0003019,"INCLINATION":97.4236,"RA_OF_ASC_NODE":269.2822,"ARG_OF_PERICENTER":244.3847,"MEAN_ANOMALY":115.7077,"EPHEMERIS_TYPE":0,"NORAD_CAT_ID":66726,"ELEMENT_SET_NO":999,"REV_AT_EPOCH":3466,"BSTAR":0.00018749,"MEAN_MOTION_DOT":0.00003978,"MEAN_MOTION_DDOT":0},{"OBJECT_NAME":"FLOCK 4H-24","OBJECT_ID":"2025-276BP","EPOCH":"2026-07-15T04:37:19.365600","CLASSIFICATION_TYPE":"U","MEAN_MOTION":15.20180185,"ECCENTRICITY":0.0002387,"INCLINATION":97.4231,"RA_OF_ASC_NODE":269.361,"ARG_OF_PERICENTER":267.1785,"MEAN_ANOMALY":92.9177,"EPHEMERIS_TYPE":0,"NORAD_CAT_ID":66727,"ELEMENT_SET_NO":999,"REV_AT_EPOCH":3467,"BSTAR":0.00016783,"MEAN_MOTION_DOT":0.00003565,"MEAN_MOTION_DDOT":0},{"OBJECT_NAME":"FLOCK 4H-25","OBJECT_ID":"2025-276BQ","EPOCH":"2026-07-15T04:39:14.402016","CLASSIFICATION_TYPE":"U","MEAN_MOTION":15.20945727,"ECCENTRICITY":0.0001834,"INCLINATION":97.4187,"RA_OF_ASC_NODE":269.5294,"ARG_OF_PERICENTER":127.1159,"MEAN_ANOMALY":233.0245,"EPHEMERIS_TYPE":0,"NORAD_CAT_ID":66728,"ELEMENT_SET_NO":999,"REV_AT_EPOCH":3397,"BSTAR":0.00016251,"MEAN_MOTION_DOT":0.00003529,"MEAN_MOTION_DDOT":0},{"OBJECT_NAME":"FLOCK 4H-26","OBJECT_ID":"2025-276BR","EPOCH":"2026-07-15T03:50:39.852672","CLASSIFICATION_TYPE":"U","MEAN_MOTION":15.19902836,"ECCENTRICITY":0.0003212,"INCLINATION":97.4187,"RA_OF_ASC_NODE":269.111,"ARG_OF_PERICENTER":265.7877,"MEAN_ANOMALY":94.2991,"EPHEMERIS_TYPE":0,"NORAD_CAT_ID":66729,"ELEMENT_SET_NO":999,"REV_AT_EPOCH":3466,"BSTAR":0.00019047,"MEAN_MOTION_DOT":0.00004023,"MEAN_MOTION_DDOT":0},{"OBJECT_NAME":"FLOCK 4H-27","OBJECT_ID":"2025-276BS","EPOCH":"2026-07-15T03:48:34.666848","CLASSIFICATION_TYPE":"U","MEAN_MOTION":15.20768764,"ECCENTRICITY":0.0001576,"INCLINATION":97.4163,"RA_OF_ASC_NODE":269.3482,"ARG_OF_PERICENTER":128.0753,"MEAN_ANOMALY":232.0625,"EPHEMERIS_TYPE":0,"NORAD_CAT_ID":66730,"ELEMENT_SET_NO":999,"REV_AT_EPOCH":3468,"BSTAR":0.00017366,"MEAN_MOTION_DOT":0.00003756,"MEAN_MOTION_DDOT":0},{"OBJECT_NAME":"FLOCK 4H-29","OBJECT_ID":"2025-276BU","EPOCH":"2026-07-15T03:21:11.513376","CLASSIFICATION_TYPE":"U","MEAN_MOTION":15.20043284,"ECCENTRICITY":0.0001661,"INCLINATION":97.4164,"RA_OF_ASC_NODE":269.0732,"ARG_OF_PERICENTER":285.6673,"MEAN_ANOMALY":74.4378,"EPHEMERIS_TYPE":0,"NORAD_CAT_ID":66732,"ELEMENT_SET_NO":999,"REV_AT_EPOCH":3466,"BSTAR":0.00018784,"MEAN_MOTION_DOT":0.00003983,"MEAN_MOTION_DDOT":0},{"OBJECT_NAME":"FLOCK 4H-30","OBJECT_ID":"2025-276BV","EPOCH":"2026-07-15T03:09:32.171040","CLASSIFICATION_TYPE":"U","MEAN_MOTION":15.2016575,"ECCENTRICITY":0.0002656,"INCLINATION":97.4226,"RA_OF_ASC_NODE":269.2727,"ARG_OF_PERICENTER":266.174,"MEAN_ANOMALY":93.9192,"EPHEMERIS_TYPE":0,"NORAD_CAT_ID":66733,"ELEMENT_SET_NO":999,"REV_AT_EPOCH":3466,"BSTAR":0.00017347,"MEAN_MOTION_DOT":0.00003686,"MEAN_MOTION_DDOT":0},{"OBJECT_NAME":"FLOCK 4H-31","OBJECT_ID":"2025-276BW","EPOCH":"2026-07-15T03:39:43.845120","CLASSIFICATION_TYPE":"U","MEAN_MOTION":15.19941405,"ECCENTRICITY":0.0002143,"INCLINATION":97.4164,"RA_OF_ASC_NODE":269.0532,"ARG_OF_PERICENTER":277.5475,"MEAN_ANOMALY":82.5517,"EPHEMERIS_TYPE":0,"NORAD_CAT_ID":66734,"ELEMENT_SET_NO":999,"REV_AT_EPOCH":3466,"BSTAR":0.00018027,"MEAN_MOTION_DOT":0.00003808,"MEAN_MOTION_DDOT":0},{"OBJECT_NAME":"FLOCK 4H-32","OBJECT_ID":"2025-276BX","EPOCH":"2026-07-15T03:22:19.367616","CLASSIFICATION_TYPE":"U","MEAN_MOTION":15.20061191,"ECCENTRICITY":0.0003037,"INCLINATION":97.4218,"RA_OF_ASC_NODE":269.2375,"ARG_OF_PERICENTER":262.4056,"MEAN_ANOMALY":97.6834,"EPHEMERIS_TYPE":0,"NORAD_CAT_ID":66735,"ELEMENT_SET_NO":999,"REV_AT_EPOCH":3466,"BSTAR":0.00018051,"MEAN_MOTION_DOT":0.00003826,"MEAN_MOTION_DDOT":0},{"OBJECT_NAME":"FLOCK 4H-33","OBJECT_ID":"2025-276BY","EPOCH":"2026-07-15T03:56:52.554624","CLASSIFICATION_TYPE":"U","MEAN_MOTION":15.21188739,"ECCENTRICITY":0.0002705,"INCLINATION":97.4216,"RA_OF_ASC_NODE":269.654,"ARG_OF_PERICENTER":162.5407,"MEAN_ANOMALY":197.5922,"EPHEMERIS_TYPE":0,"NORAD_CAT_ID":66736,"ELEMENT_SET_NO":999,"REV_AT_EPOCH":3469,"BSTAR":0.0001608,"MEAN_MOTION_DOT":0.00003516,"MEAN_MOTION_DDOT":0}]}
